OBJECT_NAME,OBJECT_ID,EPOCH,MEAN_MOTION,ECCENTRICITY,INCLINATION,RA_OF_ASC_NODE,ARG_OF_PERICENTER,MEAN_ANOMALY,EPHEMERIS_TYPE,CLASSIFICATION_TYPE,NORAD_CAT_ID,ELEMENT_SET_NO,REV_AT_EPOCH,BSTAR,MEAN_MOTION_DOT,MEAN_MOTION_DDOT
TEVEL2-9,2025-052AD,2026-07-19T05:15:06.905952,15.32806992,.00073214,97.3893,95.4966,45.4826,314.7014,0,U,63237,999,7493,.27748568E-3,.8721E-4,0
TEVEL2-7,2025-052AE,2026-07-19T03:15:11.687616,15.32487513,.00074527,97.3894,95.3152,46.0074,314.1782,0,U,63238,999,7491,.28610385E-3,.8905E-4,0
TEVEL2-8,2025-052AF,2026-07-19T05:01:32.827872,15.32473641,.00074778,97.3897,95.3655,46.6510,313.5354,0,U,63239,999,7492,.27077917E-3,.842E-4,0
FORESAIL-1 PRIME,2025-276DS,2026-07-19T03:31:28.170912,15.18956984,.00025565,97.4184,272.8360,36.0771,324.0635,0,U,66778,999,3525,.11612548E-3,.2359E-4,0
